[{"OBJECT_NAME":"STARLINK-4400","OBJECT_ID":"2022-099D","EPOCH":"2026-03-09T20:34:49.725408","MEAN_MOTION":15.012462,"ECCENTRICITY":0.00020188,"INCLINATION":97.6032,"RA_OF_ASC_NODE":190.3793,"ARG_OF_PERICENTER":79.6741,"MEAN_ANOMALY":280.4711,"EPHEMERIS_TYPE":0,"CLASSIFICATION_TYPE":"U","NORAD_CAT_ID":53468,"ELEMENT_SET_NO":999,"REV_AT_EPOCH":19600,"BSTAR":-6.330616e-5,"MEAN_MOTION_DOT":-8.71e-6,"MEAN_MOTION_DDOT":0},{"OBJECT_NAME":"ELECTRON KICK STAGE R\/B","OBJECT_ID":"2025-229C","EPOCH":"2026-03-09T11:01:34.584384","MEAN_MOTION":15.04670102,"ECCENTRICITY":0.00392514,"INCLINATION":41.9818,"RA_OF_ASC_NODE":119.4948,"ARG_OF_PERICENTER":118.9737,"MEAN_ANOMALY":241.5033,"EPHEMERIS_TYPE":0,"CLASSIFICATION_TYPE":"U","NORAD_CAT_ID":65973,"ELEMENT_SET_NO":999,"REV_AT_EPOCH":2194,"BSTAR":0.00045211532,"MEAN_MOTION_DOT":6.384e-5,"MEAN_MOTION_DDOT":0}]
